[{"OBJECT_NAME":"DOJO","OBJECT_ID":"2025-185F","EPOCH":"2026-03-09T17:11:19.626432","MEAN_MOTION":14.77363091,"ECCENTRICITY":0.00117501,"INCLINATION":97.9656,"RA_OF_ASC_NODE":153.1684,"ARG_OF_PERICENTER":55.9365,"MEAN_ANOMALY":304.2959,"EPHEMERIS_TYPE":0,"CLASSIFICATION_TYPE":"U","NORAD_CAT_ID":65302,"ELEMENT_SET_NO":999,"REV_AT_EPOCH":2914,"BSTAR":0.00075654511,"MEAN_MOTION_DOT":5.335e-5,"MEAN_MOTION_DDOT":0},{"OBJECT_NAME":"CZ-6A DEB","OBJECT_ID":"2022-151QN","EPOCH":"2026-03-08T08:47:22.606368","MEAN_MOTION":14.57010757,"ECCENTRICITY":0.00917316,"INCLINATION":98.6258,"RA_OF_ASC_NODE":119.6672,"ARG_OF_PERICENTER":262.2263,"MEAN_ANOMALY":96.8511,"EPHEMERIS_TYPE":0,"CLASSIFICATION_TYPE":"U","NORAD_CAT_ID":54901,"ELEMENT_SET_NO":999,"REV_AT_EPOCH":17455,"BSTAR":0.0022406919,"MEAN_MOTION_DOT":0.00010631,"MEAN_MOTION_DDOT":0}]
